CCSDS_OMM_VERS = 2.0
CREATION_DATE  = 
ORIGINATOR     = 

OBJECT_NAME    = DELTA 1 R/B
OBJECT_ID      = 1989-089B
CENTER_NAME    = EARTH
REF_FRAME      = TEME
TIME_SYSTEM    = UTC
MEAN_ELEMENT_THEORY = SGP/SGP4

EPOCH          = 2025-10-28T14:16:32.725344
MEAN_MOTION    = 14.50516025
ECCENTRICITY   = .00691432
INCLINATION    = 97.0804
RA_OF_ASC_NODE = 164.9775
ARG_OF_PERICENTER = 178.7985
MEAN_ANOMALY   = 181.3392

EPHEMERIS_TYPE = 0
CLASSIFICATION_TYPE = U
NORAD_CAT_ID   = 20323
ELEMENT_SET_NO = 999
REV_AT_EPOCH   = 87658
BSTAR          = .12087408E-3
MEAN_MOTION_DOT = .453E-5
MEAN_MOTION_DDOT = 0

CCSDS_OMM_VERS = 2.0
CREATION_DATE  = 
ORIGINATOR     = 

OBJECT_NAME    = ARIANE 40 R/B
OBJECT_ID      = 1990-005H
CENTER_NAME    = EARTH
REF_FRAME      = TEME
TIME_SYSTEM    = UTC
MEAN_ELEMENT_THEORY = SGP/SGP4

EPOCH          = 2025-10-28T15:16:29.119296
MEAN_MOTION    = 14.39745924
ECCENTRICITY   = .00091596
INCLINATION    = 98.3304
RA_OF_ASC_NODE = 1.0756
ARG_OF_PERICENTER = 238.3504
MEAN_ANOMALY   = 121.6792

EPHEMERIS_TYPE = 0
CLASSIFICATION_TYPE = U
NORAD_CAT_ID   = 20443
ELEMENT_SET_NO = 999
REV_AT_EPOCH   = 87380
BSTAR          = .1544806E-3
MEAN_MOTION_DOT = .442E-5
MEAN_MOTION_DDOT = 0

CCSDS_OMM_VERS = 2.0
CREATION_DATE  = 
ORIGINATOR     = 

OBJECT_NAME    = DELTA 2 R/B(1)
OBJECT_ID      = 1990-008B
CENTER_NAME    = EARTH
REF_FRAME      = TEME
TIME_SYSTEM    = UTC
MEAN_ELEMENT_THEORY = SGP/SGP4

EPOCH          = 2025-10-28T07:58:32.644128
MEAN_MOTION    = 15.41117356
ECCENTRICITY   = .0118449
INCLINATION    = 35.6081
RA_OF_ASC_NODE = 312.8251
ARG_OF_PERICENTER = 125.5658
MEAN_ANOMALY   = 235.6180

EPHEMERIS_TYPE = 0
CLASSIFICATION_TYPE = U
NORAD_CAT_ID   = 20453
ELEMENT_SET_NO = 999
REV_AT_EPOCH   = 90561
BSTAR          = .652891E-3
MEAN_MOTION_DOT = .36012E-3
MEAN_MOTION_DDOT = 0

CCSDS_OMM_VERS = 2.0
CREATION_DATE  = 
ORIGINATOR     = 

OBJECT_NAME    = COSMOS 2058
OBJECT_ID      = 1990-010A
CENTER_NAME    = EARTH
REF_FRAME      = TEME
TIME_SYSTEM    = UTC
MEAN_ELEMENT_THEORY = SGP/SGP4

EPOCH          = 2025-10-28T15:16:08.664960
MEAN_MOTION    = 15.09975132
ECCENTRICITY   = .00114109
INCLINATION    = 82.4701
RA_OF_ASC_NODE = 177.3916
ARG_OF_PERICENTER = 66.2133
MEAN_ANOMALY   = 294.0292

EPHEMERIS_TYPE = 0
CLASSIFICATION_TYPE = U
NORAD_CAT_ID   = 20465
ELEMENT_SET_NO = 999
REV_AT_EPOCH   = 92230
BSTAR          = .2587406E-3
MEAN_MOTION_DOT = .4234E-4
MEAN_MOTION_DDOT = 0

CCSDS_OMM_VERS = 2.0
CREATION_DATE  = 
ORIGINATOR     = 

OBJECT_NAME    = SL-14 R/B
OBJECT_ID      = 1990-010B
CENTER_NAME    = EARTH
REF_FRAME      = TEME
TIME_SYSTEM    = UTC
MEAN_ELEMENT_THEORY = SGP/SGP4

EPOCH          = 2025-10-28T08:23:56.568192
MEAN_MOTION    = 14.83408579
ECCENTRICITY   = .00203069
INCLINATION    = 82.5053
RA_OF_ASC_NODE = 31.6655
ARG_OF_PERICENTER = 20.2537
MEAN_ANOMALY   = 339.9479

EPHEMERIS_TYPE = 0
CLASSIFICATION_TYPE = U
NORAD_CAT_ID   = 20466
ELEMENT_SET_NO = 999
REV_AT_EPOCH   = 90886
BSTAR          = .79960329E-4
MEAN_MOTION_DOT = .682E-5
MEAN_MOTION_DDOT = 0

CCSDS_OMM_VERS = 2.0
CREATION_DATE  = 
ORIGINATOR     = 

OBJECT_NAME    = SL-14 R/B
OBJECT_ID      = 1990-018B
CENTER_NAME    = EARTH
REF_FRAME      = TEME
TIME_SYSTEM    = UTC
MEAN_ELEMENT_THEORY = SGP/SGP4

EPOCH          = 2025-10-28T13:52:24.689856
MEAN_MOTION    = 14.81984127
ECCENTRICITY   = .00168951
INCLINATION    = 82.5227
RA_OF_ASC_NODE = 346.5787
ARG_OF_PERICENTER = 161.9932
MEAN_ANOMALY   = 198.1885

EPHEMERIS_TYPE = 0
CLASSIFICATION_TYPE = U
NORAD_CAT_ID   = 20511
ELEMENT_SET_NO = 999
REV_AT_EPOCH   = 90301
BSTAR          = .68286906E-4
MEAN_MOTION_DOT = .566E-5
MEAN_MOTION_DDOT = 0

CCSDS_OMM_VERS = 2.0
CREATION_DATE  = 
ORIGINATOR     = 

OBJECT_NAME    = HST
OBJECT_ID      = 1990-037B
CENTER_NAME    = EARTH
REF_FRAME      = TEME
TIME_SYSTEM    = UTC
MEAN_ELEMENT_THEORY = SGP/SGP4

EPOCH          = 2025-10-28T10:52:08.794848
MEAN_MOTION    = 15.27189683
ECCENTRICITY   = .00021098
INCLINATION    = 28.4671
RA_OF_ASC_NODE = 220.5377
ARG_OF_PERICENTER = 87.6959
MEAN_ANOMALY   = 272.3877

EPHEMERIS_TYPE = 0
CLASSIFICATION_TYPE = U
NORAD_CAT_ID   = 20580
ELEMENT_SET_NO = 999
REV_AT_EPOCH   = 75306
BSTAR          = .33511644E-3
MEAN_MOTION_DOT = .9418E-4
MEAN_MOTION_DDOT = 0

CCSDS_OMM_VERS = 2.0
CREATION_DATE  = 
ORIGINATOR     = 

OBJECT_NAME    = SL-16 R/B
OBJECT_ID      = 1990-046B
CENTER_NAME    = EARTH
REF_FRAME      = TEME
TIME_SYSTEM    = UTC
MEAN_ELEMENT_THEORY = SGP/SGP4

EPOCH          = 2025-10-28T12:03:37.918944
MEAN_MOTION    = 14.14991516
ECCENTRICITY   = .00129771
INCLINATION    = 71.0000
RA_OF_ASC_NODE = 215.5208
ARG_OF_PERICENTER = 153.8374
MEAN_ANOMALY   = 206.3407

EPHEMERIS_TYPE = 0
CLASSIFICATION_TYPE = U
NORAD_CAT_ID   = 20625
ELEMENT_SET_NO = 999
REV_AT_EPOCH   = 82969
BSTAR          = .10713285E-3
MEAN_MOTION_DOT = .16E-5
MEAN_MOTION_DDOT = 0

CCSDS_OMM_VERS = 2.0
CREATION_DATE  = 
ORIGINATOR     = 

OBJECT_NAME    = COSMOS 2084
OBJECT_ID      = 1990-055A
CENTER_NAME    = EARTH
REF_FRAME      = TEME
TIME_SYSTEM    = UTC
MEAN_ELEMENT_THEORY = SGP/SGP4

EPOCH          = 2025-10-28T13:55:49.034496
MEAN_MOTION    = 15.04597887
ECCENTRICITY   = .00393266
INCLINATION    = 62.7910
RA_OF_ASC_NODE = 65.8192
ARG_OF_PERICENTER = 169.3114
MEAN_ANOMALY   = 190.8831

EPHEMERIS_TYPE = 0
CLASSIFICATION_TYPE = U
NORAD_CAT_ID   = 20663
ELEMENT_SET_NO = 999
REV_AT_EPOCH   = 91643
BSTAR          = .37586298E-3
MEAN_MOTION_DOT = .519E-4
MEAN_MOTION_DDOT = 0

CCSDS_OMM_VERS = 2.0
CREATION_DATE  = 
ORIGINATOR     = 

OBJECT_NAME    = SL-6 R/B(2)
OBJECT_ID      = 1990-055D
CENTER_NAME    = EARTH
REF_FRAME      = TEME
TIME_SYSTEM    = UTC
MEAN_ELEMENT_THEORY = SGP/SGP4

EPOCH          = 2025-10-28T10:57:38.825568
MEAN_MOTION    = 15.02742583
ECCENTRICITY   = .00106847
INCLINATION    = 62.7849
RA_OF_ASC_NODE = 343.2421
ARG_OF_PERICENTER = 267.1617
MEAN_ANOMALY   = 92.8260

EPHEMERIS_TYPE = 0
CLASSIFICATION_TYPE = U
NORAD_CAT_ID   = 20666
ELEMENT_SET_NO = 999
REV_AT_EPOCH   = 91831
BSTAR          = .23636562E-3
MEAN_MOTION_DOT = .2982E-4
MEAN_MOTION_DDOT = 0

CCSDS_OMM_VERS = 2.0
CREATION_DATE  = 
ORIGINATOR     = 

OBJECT_NAME    = SL-8 R/B
OBJECT_ID      = 1990-078B
CENTER_NAME    = EARTH
REF_FRAME      = TEME
TIME_SYSTEM    = UTC
MEAN_ELEMENT_THEORY = SGP/SGP4

EPOCH          = 2025-10-28T10:36:23.719680
MEAN_MOTION    = 14.83667016
ECCENTRICITY   = .0383741
INCLINATION    = 82.9084
RA_OF_ASC_NODE = 9.7623
ARG_OF_PERICENTER = 97.1722
MEAN_ANOMALY   = 267.3280

EPHEMERIS_TYPE = 0
CLASSIFICATION_TYPE = U
NORAD_CAT_ID   = 20775
ELEMENT_SET_NO = 999
REV_AT_EPOCH   = 78965
BSTAR          = .50600103E-3
MEAN_MOTION_DOT = .16356E-3
MEAN_MOTION_DDOT = 0

CCSDS_OMM_VERS = 2.0
CREATION_DATE  = 
ORIGINATOR     = 

OBJECT_NAME    = SL-8 R/B
OBJECT_ID      = 1991-006B
CENTER_NAME    = EARTH
REF_FRAME      = TEME
TIME_SYSTEM    = UTC
MEAN_ELEMENT_THEORY = SGP/SGP4

EPOCH          = 2025-10-28T10:27:57.544416
MEAN_MOTION    = 13.77479561
ECCENTRICITY   = .00236369
INCLINATION    = 82.9394
RA_OF_ASC_NODE = 268.4155
ARG_OF_PERICENTER = 48.0975
MEAN_ANOMALY   = 66.6104

EPHEMERIS_TYPE = 0
CLASSIFICATION_TYPE = U
NORAD_CAT_ID   = 21088
ELEMENT_SET_NO = 999
REV_AT_EPOCH   = 74586
BSTAR          = .1828376E-3
MEAN_MOTION_DOT = .198E-5
MEAN_MOTION_DDOT = 0

