DELTA 1 R/B             
1 20323U 89089B   25301.59482321  .00000453  00000+0  12087-3 0  9991
2 20323  97.0804 164.9775 0069143 178.7985 181.3392 14.50516025876587
ARIANE 40 R/B           
1 20443U 90005H   25301.63644814  .00000442  00000+0  15448-3 0  9998
2 20443  98.3304   1.0756 0009159 238.3504 121.6792 14.39745924873802
DELTA 2 R/B(1)          
1 20453U 90008B   25301.33232227  .00036012  00000+0  65289-3 0  9990
2 20453  35.6081 312.8251 0118449 125.5658 235.6180 15.41117356905610
COSMOS 2058             
1 20465U 90010A   25301.63621140  .00004234  00000+0  25874-3 0  9992
2 20465  82.4701 177.3916 0011410  66.2133 294.0292 15.09975132922309
SL-14 R/B               
1 20466U 90010B   25301.34996028  .00000682  00000+0  79960-4 0  9990
2 20466  82.5053  31.6655 0020306  20.2537 339.9479 14.83408579908863
SL-14 R/B               
1 20511U 90018B   25301.57806354  .00000566  00000+0  68287-4 0  9997
2 20511  82.5227 346.5787 0016895 161.9932 198.1885 14.81984127903015
HST                     
1 20580U 90037B   25301.45287957  .00009418  00000+0  33512-3 0  9990
2 20580  28.4671 220.5377 0002109  87.6959 272.3877 15.27189683753064
SL-16 R/B               
1 20625U 90046B   25301.50252221  .00000160  00000+0  10713-3 0  9995
2 20625  71.0000 215.5208 0012977 153.8374 206.3407 14.14991516829692
COSMOS 2084             
1 20663U 90055A   25301.58042864  .00005190  00000+0  37586-3 0  9990
2 20663  62.7910  65.8192 0039326 169.3114 190.8831 15.04597887916430
SL-6 R/B(2)             
1 20666U 90055D   25301.45669937  .00002982  00000+0  23637-3 0  9993
2 20666  62.7849 343.2421 0010684 267.1617  92.8260 15.02742583918312
SL-8 R/B                
1 20775U 90078B   25301.44194120  .00016356  00000+0  50600-3 0  9995
2 20775  82.9084   9.7623 0383741  97.1722 267.3280 14.83667016789650
SL-8 R/B                
1 21088U 91006B   25301.43608269  .00000198  00000+0  18284-3 0  9997
2 21088  82.9394 268.4155 0023636  48.0975  66.6104 13.77479561745863
